[{"OBJECT_NAME":"STARLINK-5828","OBJECT_ID":"2023-088Y","EPOCH":"2026-03-09T22:00:01.999584","MEAN_MOTION":15.10626541,"ECCENTRICITY":0.0001023,"INCLINATION":43.0004,"RA_OF_ASC_NODE":93.547,"ARG_OF_PERICENTER":271.3416,"MEAN_ANOMALY":325.7149,"EPHEMERIS_TYPE":0,"CLASSIFICATION_TYPE":"U","NORAD_CAT_ID":57070,"ELEMENT_SET_NO":999,"REV_AT_EPOCH":572,"BSTAR":0.0030332651,"MEAN_MOTION_DOT":0.00051164,"MEAN_MOTION_DDOT":0},{"OBJECT_NAME":"OBJECT P","OBJECT_ID":"2023-091P","EPOCH":"2026-03-09T22:51:54.228672","MEAN_MOTION":15.15656196,"ECCENTRICITY":0.00167439,"INCLINATION":97.5224,"RA_OF_ASC_NODE":125.9166,"ARG_OF_PERICENTER":108.1275,"MEAN_ANOMALY":252.1782,"EPHEMERIS_TYPE":0,"CLASSIFICATION_TYPE":"U","NORAD_CAT_ID":57179,"ELEMENT_SET_NO":999,"REV_AT_EPOCH":14875,"BSTAR":0.00031146845,"MEAN_MOTION_DOT":5.878e-5,"MEAN_MOTION_DDOT":0}]
